{
  "type": "FeatureCollection",
  "features": [
    {
      "type": "Feature",
      "properties": {
        "norad_id": 33886,
        "name": "IRIDIUM 33 DEB",
        "group": "iridium-33-debris",
        "lat": -32.81317178760811,
        "lon": 64.87034364046954,
        "alt_km": 777.0284304624265,
        "timestamp": "2025-12-12T18:57:44.514308+00:00",
        "meta_object_name": "IRIDIUM 33 DEB",
        "meta_object_id": "1997-051BF",
        "meta_epoch": "2025-12-12T07:43:58.791936",
        "meta_mean_motion": 14.36051386,
        "meta_eccentricity": 0.00122783,
        "meta_inclination": 86.3831,
        "meta_ra_of_asc_node": 67.4046,
        "meta_arg_of_pericenter": 243.5725,
        "meta_mean_anomaly": 186.1446,
        "meta_ephemeris_type": 0,
        "meta_classification_type": "U",
        "meta_norad_cat_id": 33886,
        "meta_element_set_no": 999,
        "meta_rev_at_epoch": 88046,
        "meta_bstar": 0.00031053404,
        "meta_mean_motion_dot": 9.23e-06,
        "meta_mean_motion_ddot": 0,
        "tle_line1": "1 33886U 97051BF  25346.32220824  .00000923  00000+0  31053-3 0  9991",
        "tle_line2": "2 33886  86.3831  67.4046 0012278 243.5725 186.1446 14.36051386880467"
      },
      "geometry": {
        "type": "Point",
        "coordinates": [
          64.87034364046954,
          -32.81317178760811
        ]
      }
    },
    {
      "type": "Feature",
      "properties": {
        "norad_id": 33887,
        "name": "IRIDIUM 33 DEB",
        "group": "iridium-33-debris",
        "lat": -82.60457721711812,
        "lon": -146.7658182200197,
        "alt_km": 772.6179030663425,
        "timestamp": "2025-12-12T18:57:44.514318+00:00",
        "meta_object_name": "IRIDIUM 33 DEB",
        "meta_object_id": "1997-051BG",
        "meta_epoch": "2025-12-12T07:48:45.874944",
        "meta_mean_motion": 14.37220455,
        "meta_eccentricity": 0.00044071,
        "meta_inclination": 86.3045,
        "meta_ra_of_asc_node": 3.5708,
        "meta_arg_of_pericenter": 228.4515,
        "meta_mean_anomaly": 152.9462,
        "meta_ephemeris_type": 0,
        "meta_classification_type": "U",
        "meta_norad_cat_id": 33887,
        "meta_element_set_no": 999,
        "meta_rev_at_epoch": 88159,
        "meta_bstar": 0.000221312,
        "meta_mean_motion_dot": 6.78e-06,
        "meta_mean_motion_ddot": 0,
        "tle_line1": "1 33887U 97051BG  25346.32553096  .00000678  00000+0  22131-3 0  9996",
        "tle_line2": "2 33887  86.3045   3.5708 0004407 228.4515 152.9462 14.37220455881595"
      },
      "geometry": {
        "type": "Point",
        "coordinates": [
          -146.7658182200197,
          -82.60457721711812
        ]
      }
    },
    {
      "type": "Feature",
      "properties": {
        "norad_id": 33953,
        "name": "IRIDIUM 33 DEB",
        "group": "iridium-33-debris",
        "lat": 57.35581034762781,
        "lon": -131.90721379425509,
        "alt_km": 690.6044564341419,
        "timestamp": "2025-12-12T18:57:44.514329+00:00",
        "meta_object_name": "IRIDIUM 33 DEB",
        "meta_object_id": "1997-051BN",
        "meta_epoch": "2025-12-12T05:28:32.173824",
        "meta_mean_motion": 14.55319488,
        "meta_eccentricity": 0.0018409,
        "meta_inclination": 86.3843,
        "meta_ra_of_asc_node": 54.0012,
        "meta_arg_of_pericenter": 104.433,
        "meta_mean_anomaly": 315.6568,
        "meta_ephemeris_type": 0,
        "meta_classification_type": "U",
        "meta_norad_cat_id": 33953,
        "meta_element_set_no": 999,
        "meta_rev_at_epoch": 88296,
        "meta_bstar": 0.0019554392,
        "meta_mean_motion_dot": 8.519e-05,
        "meta_mean_motion_ddot": 0,
        "tle_line1": "1 33953U 97051BN  25346.22815016  .00008519  00000+0  19554-2 0  9998",
        "tle_line2": "2 33953  86.3843  54.0012 0018409 104.4330 315.6568 14.55319488882961"
      },
      "geometry": {
        "type": "Point",
        "coordinates": [
          -131.90721379425509,
          57.35581034762781
        ]
      }
    },
    {
      "type": "Feature",
      "properties": {
        "norad_id": 33960,
        "name": "IRIDIUM 33 DEB",
        "group": "iridium-33-debris",
        "lat": -67.86326222078571,
        "lon": -79.77986157510078,
        "alt_km": 623.5835884377802,
        "timestamp": "2025-12-12T18:57:44.514339+00:00",
        "meta_object_name": "IRIDIUM 33 DEB",
        "meta_object_id": "1997-051BV",
        "meta_epoch": "2025-12-11T20:52:13.312128",
        "meta_mean_motion": 14.85121731,
        "meta_eccentricity": 0.0007473,
        "meta_inclination": 86.253,
        "meta_ra_of_asc_node": 289.9247,
        "meta_arg_of_pericenter": 63.6989,
        "meta_mean_anomaly": 349.9861,
        "meta_ephemeris_type": 0,
        "meta_classification_type": "U",
        "meta_norad_cat_id": 33960,
        "meta_element_set_no": 999,
        "meta_rev_at_epoch": 88854,
        "meta_bstar": 0.0046476,
        "meta_mean_motion_dot": 0.00039972,
        "meta_mean_motion_ddot": 0,
        "tle_line1": "1 33960U 97051BV  25345.86959852  .00039972  00000+0  46476-2 0  9992",
        "tle_line2": "2 33960  86.2530 289.9247 0007473  63.6989 349.9861 14.85121731888546"
      },
      "geometry": {
        "type": "Point",
        "coordinates": [
          -79.77986157510078,
          -67.86326222078571
        ]
      }
    },
    {
      "type": "Feature",
      "properties": {
        "norad_id": 33966,
        "name": "IRIDIUM 33 DEB",
        "group": "iridium-33-debris",
        "lat": -67.18009298479221,
        "lon": -125.37085632038192,
        "alt_km": 731.6563429050611,
        "timestamp": "2025-12-12T18:57:44.514349+00:00",
        "meta_object_name": "IRIDIUM 33 DEB",
        "meta_object_id": "1997-051CB",
        "meta_epoch": "2025-12-12T04:49:14.454336",
        "meta_mean_motion": 14.49591361,
        "meta_eccentricity": 0.00073539,
        "meta_inclination": 86.3923,
        "meta_ra_of_asc_node": 46.2584,
        "meta_arg_of_pericenter": 189.8927,
        "meta_mean_anomaly": 224.4541,
        "meta_ephemeris_type": 0,
        "meta_classification_type": "U",
        "meta_norad_cat_id": 33966,
        "meta_element_set_no": 999,
        "meta_rev_at_epoch": 88434,
        "meta_bstar": 0.00087368937,
        "meta_mean_motion_dot": 3.373e-05,
        "meta_mean_motion_ddot": 0,
        "tle_line1": "1 33966U 97051CB  25346.20086174  .00003373  00000+0  87369-3 0  9998",
        "tle_line2": "2 33966  86.3923  46.2584 0007353 189.8927 224.4541 14.49591361884343"
      },
      "geometry": {
        "type": "Point",
        "coordinates": [
          -125.37085632038192,
          -67.18009298479221
        ]
      }
    },
    {
      "type": "Feature",
      "properties": {
        "norad_id": 34071,
        "name": "IRIDIUM 33 DEB",
        "group": "iridium-33-debris",
        "lat": -46.33132278031109,
        "lon": 13.968018261962078,
        "alt_km": 740.5739453823908,
        "timestamp": "2025-12-12T18:57:44.514359+00:00",
        "meta_object_name": "IRIDIUM 33 DEB",
        "meta_object_id": "1997-051CE",
        "meta_epoch": "2025-12-12T02:36:29.156256",
        "meta_mean_motion": 14.49460742,
        "meta_eccentricity": 0.00099287,
        "meta_inclination": 86.346,
        "meta_ra_of_asc_node": 18.1025,
        "meta_arg_of_pericenter": 109.4154,
        "meta_mean_anomaly": 250.8124,
        "meta_ephemeris_type": 0,
        "meta_classification_type": "U",
        "meta_norad_cat_id": 34071,
        "meta_element_set_no": 999,
        "meta_rev_at_epoch": 88325,
        "meta_bstar": 0.000960108,
        "meta_mean_motion_dot": 3.696e-05,
        "meta_mean_motion_ddot": 0,
        "tle_line1": "1 34071U 97051CE  25346.10867079  .00003696  00000+0  96011-3 0  9998",
        "tle_line2": "2 34071  86.3460  18.1025 0009928 109.4154 250.8124 14.49460742883252"
      },
      "geometry": {
        "type": "Point",
        "coordinates": [
          13.968018261962078,
          -46.33132278031109
        ]
      }
    },
    {
      "type": "Feature",
      "properties": {
        "norad_id": 34077,
        "name": "IRIDIUM 33 DEB",
        "group": "iridium-33-debris",
        "lat": 20.881119342882116,
        "lon": -129.8964113469743,
        "alt_km": 681.1536246214355,
        "timestamp": "2025-12-12T18:57:44.514370+00:00",
        "meta_object_name": "IRIDIUM 33 DEB",
        "meta_object_id": "1997-051CL",
        "meta_epoch": "2025-12-12T05:23:02.919840",
        "meta_mean_motion": 14.6483143,
        "meta_eccentricity": 0.00102947,
        "meta_inclination": 86.386,
        "meta_ra_of_asc_node": 51.7343,
        "meta_arg_of_pericenter": 41.6273,
        "meta_mean_anomaly": 15.6908,
        "meta_ephemeris_type": 0,
        "meta_classification_type": "U",
        "meta_norad_cat_id": 34077,
        "meta_element_set_no": 999,
        "meta_rev_at_epoch": 88325,
        "meta_bstar": 0.0022376542,
        "meta_mean_motion_dot": 0.00011982,
        "meta_mean_motion_ddot": 0,
        "tle_line1": "1 34077U 97051CL  25346.22433935  .00011982  00000+0  22377-2 0  9997",
        "tle_line2": "2 34077  86.3860  51.7343 0010294  41.6273  15.6908 14.64831430883255"
      },
      "geometry": {
        "type": "Point",
        "coordinates": [
          -129.8964113469743,
          20.881119342882116
        ]
      }
    }
  ]
}